{
  "norad_id": 63838,
  "name": "STARLINK-34042",
  "history": [
    {
      "epoch": "2026-03-28T16:45:28.160640Z",
      "apogee_km": 483.3894530152684,
      "perigee_km": 482.5786057320174,
      "latitude_deg": 3.017616572570152e-06,
      "longitude_deg": -110.76858794077873,
      "height_km": 482.774585580122,
      "semi_major_axis_km": 6861.121029373643,
      "eccentricity": 5.909e-05,
      "inclination_deg": 43.0012,
      "raan_deg": 326.7137,
      "arg_perigee_deg": 267.9588,
      "mean_anomaly_deg": 92.1196,
      "mean_motion_rev_day": 15.2760173
    }
  ]
}