{"fetched_at":"2026-03-29T16:36:15Z","count":15609,"tles":[{"name":"STARLINK-34042","line1":"1 63838U 25093C   26087.69824260  .00030931  00000+0  11281-2 0  9997","line2":"2 63838  43.0012 326.7137 0000590 267.9588  92.1196 15.27601730 50924","category":"Starlink"}]}